[{"OBJECT_NAME":"STARLINK-11369 [DTC]","OBJECT_ID":"2024-220H","EPOCH":"2026-03-09T22:28:52.141440","MEAN_MOTION":15.70968962,"ECCENTRICITY":0.00015851,"INCLINATION":42.9982,"RA_OF_ASC_NODE":41.4375,"ARG_OF_PERICENTER":224.2395,"MEAN_ANOMALY":135.8347,"EPHEMERIS_TYPE":0,"CLASSIFICATION_TYPE":"U","NORAD_CAT_ID":62095,"ELEMENT_SET_NO":999,"REV_AT_EPOCH":7509,"BSTAR":0.0016968658,"MEAN_MOTION_DOT":0.00224478,"MEAN_MOTION_DDOT":0},{"OBJECT_NAME":"IUS R\/B(1)","OBJECT_ID":"1999-040C","EPOCH":"2026-03-09T16:36:05.003712","MEAN_MOTION":6.83415846,"ECCENTRICITY":0.43508341,"INCLINATION":28.4613,"RA_OF_ASC_NODE":201.602,"ARG_OF_PERICENTER":347.4372,"MEAN_ANOMALY":4.4884,"EPHEMERIS_TYPE":0,"CLASSIFICATION_TYPE":"U","NORAD_CAT_ID":25868,"ELEMENT_SET_NO":999,"REV_AT_EPOCH":60682,"BSTAR":0.00096039836,"MEAN_MOTION_DOT":0.0002185,"MEAN_MOTION_DDOT":0}]
